{"spkid": "50758271", "covariance": {"labels": ["e", "q", "tp", "node", "peri", "i"], "elements": [{"value": ".2428718136448108", "title": "eccentricity", "units": null, "name": "e", "sigma": 6.32954179692246e-07, "label": "e"}, {"label": "q", "name": "q", "sigma": 7.87450009201165e-07, "value": ".8919874509676238", "title": "perihelion distance", "units": "au"}, {"name": "tp", "sigma": 0.000111816325628365, "title": "time of perihelion passage", "value": "2459379.328609180135", "units": "TDB", "label": "tp"}, {"label": "node", "units": "deg", "title": "longitude of the ascending node", "value": "351.2224445260011", "sigma": 2.64852103224918e-05, "name": "om"}, {"units": "deg", "value": "236.0803264865358", "title": "argument of perihelion", "sigma": 0.000100773720324473, "name": "w", "label": "peri"}, {"name": "i", "sigma": 3.30942539146409e-05, "units": "deg", "title": "inclination", "value": "17.29984596938614", "label": "i"}], "data": [["4.006309935898847E-13", "-4.983996199844647E-13", "6.298476241180915E-11", "-9.801805877561705E-12", "5.48506790686584E-11", "-1.013425217863323E-11"], ["-4.983996199844647E-13", "6.200775169909156E-13", "-7.869236902427266E-11", "1.224949434214659E-11", "-6.855816780741632E-11", "1.246453220304943E-11"], ["6.298476241180915E-11", "-7.869236902427266E-11", "1.250289067702857E-8", "-1.93494649174535E-9", "1.105062046577956E-8", "-6.407166934477735E-10"], ["-9.801805877561705E-12", "1.224949434214659E-11", "-1.93494649174535E-9", "7.014663658266275E-10", "-2.086030672042899E-9", "-1.527204427978455E-10"], ["5.48506790686584E-11", "-6.855816780741632E-11", "1.105062046577956E-8", "-2.086030672042899E-9", "1.015534270803514E-8", "-2.131386585365426E-10"], ["-1.013425217863323E-11", "1.246453220304943E-11", "-6.407166934477735E-10", "-1.527204427978455E-10", "-2.131386585365426E-10", "1.095229642166725E-9"]], "epoch": "2459302.5"}, "elements": [{"label": "e", "title": "eccentricity", "value": ".2428126252504494", "units": null, "sigma": "6.329E-7", "name": "e"}, {"sigma": "5.5854E-8", "name": "a", "title": "semi-major axis", "value": "1.177872949324413", "units": "au", "label": "a"}, {"title": "perihelion distance", "value": ".8918705262874627", "units": "au", "name": "q", "sigma": "7.8723E-7", "label": "q"}, {"name": "i", "sigma": "3.3093E-5", "units": "deg", "title": "inclination; angle with respect to x-y ecliptic plane", "value": "17.29895610365426", "label": "i"}, {"label": "node", "value": "351.1887880227496", "title": "longitude of the ascending node", "units": "deg", "name": "om", "sigma": "2.6503E-5"}, {"name": "w", "sigma": ".0001008", "units": "deg", "value": "236.1555793947264", "title": "argument of perihelion", "label": "peri"}, {"label": "M", "title": "mean anomaly", "value": "323.7227285234088", "units": "deg", "name": "ma", "sigma": "3.2599E-5"}, {"sigma": "4.4224E-5", "name": "tp", "units": "TDB", "title": "time of perihelion passage", "value": "2461247.552013521043", "label": "tp"}, {"name": "per", "sigma": "3.3212E-5", "units": "d", "title": "sidereal orbital period", "value": "466.9238941662289", "label": "period"}, {"label": "n", "units": "deg/d", "title": "mean motion", "value": ".7710035928721114", "sigma": "5.484E-8", "name": "n"}, {"label": "Q", "sigma": "6.9416E-8", "name": "ad", "value": "1.463875372361363", "title": "aphelion distance", "units": "au"}], "epoch": "2461200.5"}